
# Worst residual: 16.33 km
# MJD 59017.000000 (2020 Jun 17  0:00)
1969-046E = NORAD 03955 = Vela 5b
1 03955U 69046E   20169.49919926  .00000000  00000-0  00000-0 0 13461
2 03955 044.3346 223.6964 5056093 072.2739 069.9152 00.21375871    04

# Worst residual: 5.37 km
# MJD 59018.000000 (2020 Jun 18  0:00)
1969-046E = NORAD 03955 = Vela 5b
1 03955U 69046E   20170.49919926  .00000000  00000-0  00000-0 0 13463
2 03955 044.3207 223.6529 5060532 072.2445 146.9050 00.21372956    08

# Worst residual: 8.38 km
# MJD 59019.000000 (2020 Jun 19  0:00)
1969-046E = NORAD 03955 = Vela 5b
1 03955U 69046E   20171.49919926  .00000000  00000-0  00000-0 0 13464
2 03955 044.3181 223.6445 5056795 072.1055 224.1524 00.21363375    08

# Worst residual: 6.11 km
# MJD 59020.000000 (2020 Jun 20  0:00)
1969-046E = NORAD 03955 = Vela 5b
1 03955U 69046E   20172.49919926  .00000000  00000-0  00000-0 0 13465
2 03955 044.3084 223.6296 5058107 072.0072 301.2497 00.21351004    03

# Worst residual: 27.69 km
# MJD 59021.000000 (2020 Jun 21  0:00)
1969-046E = NORAD 03955 = Vela 5b
1 03955U 69046E   20173.49919926  .00000000  00000-0  00000-0 0 13466
2 03955 044.3366 223.6201 5045343 071.9469 018.2708 00.21436210    01

# Worst residual: 12.21 km
# MJD 59022.000000 (2020 Jun 22  0:00)
1969-046E = NORAD 03955 = Vela 5b
1 03955U 69046E   20174.49919926  .00000000  00000-0  00000-0 0 13467
2 03955 044.2952 223.5881 5055879 071.9021 095.3258 00.21404575    08

# Worst residual: 1.22 km
# MJD 59023.000000 (2020 Jun 23  0:00)
1969-046E = NORAD 03955 = Vela 5b
1 03955U 69046E   20175.49919926  .00000000  00000-0  00000-0 0 13468
2 03955 044.2816 223.5421 5053962 071.9513 172.2878 00.21385376    04

# Worst residual: 4.53 km
# MJD 59024.000000 (2020 Jun 24  0:00)
1969-046E = NORAD 03955 = Vela 5b
1 03955U 69046E   20176.49919926  .00000000  00000-0  00000-0 0 13469
2 03955 044.2750 223.5122 5056225 071.9340 249.3428 00.21391284    04

# Worst residual: 29.55 km
# MJD 59025.000000 (2020 Jun 25  0:00)
1969-046E = NORAD 03955 = Vela 5b
1 03955U 69046E   20177.49919926  .00000000  00000-0  00000-0 0 13460
2 03955 044.2825 223.4508 5049384 072.0119 326.2831 00.21438526    02

# Worst residual: 21.63 km
# MJD 59026.000000 (2020 Jun 26  0:00)
1969-046E = NORAD 03955 = Vela 5b
1 03955U 69046E   20178.49919926  .00000000  00000-0  00000-0 0 13461
2 03955 044.2845 223.4630 5053194 071.7342 043.5393 00.21412165    01

# Worst residual: 2.97 km
# MJD 59027.000000 (2020 Jun 27  0:00)
1969-046E = NORAD 03955 = Vela 5b
1 03955U 69046E   20179.49919926  .00000000  00000-0  00000-0 0 13462
2 03955 044.2709 223.4276 5060872 071.7992 120.3730 00.21367103    08

# Worst residual: 5.24 km
# MJD 59028.000000 (2020 Jun 28  0:00)
1969-046E = NORAD 03955 = Vela 5b
1 03955U 69046E   20180.49919926  .00000000  00000-0  00000-0 0 13464
2 03955 044.2746 223.4223 5064541 071.7036 197.4987 00.21375797    04

# Worst residual: 2.94 km
# MJD 59029.000000 (2020 Jun 29  0:00)
1969-046E = NORAD 03955 = Vela 5b
1 03955U 69046E   20181.49919926  .00000000  00000-0  00000-0 0 13465
2 03955 044.2674 223.3999 5066995 071.5917 274.7069 00.21366419    05

# Worst residual: 24.92 km
# MJD 59030.000000 (2020 Jun 30  0:00)
1969-046E = NORAD 03955 = Vela 5b
1 03955U 69046E   20182.49919926  .00000000  00000-0  00000-0 0 13466
2 03955 044.2737 223.3568 5051770 071.5664 351.6332 00.21426465    07

# Worst residual: 19.98 km
# MJD 59031.000000 (2020 Jul  1  0:00)
1969-046E = NORAD 03955 = Vela 5b
1 03955U 69046E   20183.49919926  .00000000  00000-0  00000-0 0 13467
2 03955 044.2610 223.3354 5061257 071.4366 068.7601 00.21402413    01

# Worst residual: 4.62 km
# MJD 59032.000000 (2020 Jul  2  0:00)
1969-046E = NORAD 03955 = Vela 5b
1 03955U 69046E   20184.49919926  .00000000  00000-0  00000-0 0 13468
2 03955 044.2523 223.2943 5066296 071.5523 145.4787 00.21361529    01

# Worst residual: 3.18 km
# MJD 59033.000000 (2020 Jul  3  0:00)
1969-046E = NORAD 03955 = Vela 5b
1 03955U 69046E   20185.49919926  .00000000  00000-0  00000-0 0 13469
2 03955 044.2416 223.2429 5071074 071.5484 222.4451 00.21369444    05

# Worst residual: 7.65 km
# MJD 59034.000000 (2020 Jul  4  0:00)
1969-046E = NORAD 03955 = Vela 5b
1 03955U 69046E   20186.49919926  .00000000  00000-0  00000-0 0 13460
2 03955 044.2403 223.1771 5077585 071.5975 299.4652 00.21389411    01

# Worst residual: 34.76 km
# MJD 59035.000000 (2020 Jul  5  0:00)
1969-046E = NORAD 03955 = Vela 5b
1 03955U 69046E   20187.49919926  .00000000  00000-0  00000-0 0 13461
2 03955 044.2786 223.1692 5067849 071.4786 016.6038 00.21441900    07

# Worst residual: 13.10 km
# MJD 59036.000000 (2020 Jul  6  0:00)
1969-046E = NORAD 03955 = Vela 5b
1 03955U 69046E   20188.49919926  .00000000  00000-0  00000-0 0 13462
2 03955 044.2274 223.1437 5079325 071.4414 093.6364 00.21399701    04

# Worst residual: 4.81 km
# MJD 59037.000000 (2020 Jul  7  0:00)
1969-046E = NORAD 03955 = Vela 5b
1 03955U 69046E   20189.49919926  .00000000  00000-0  00000-0 0 13463
2 03955 044.2051 223.0807 5077411 071.5477 170.4580 00.21371908    04

# Worst residual: 5.61 km
# MJD 59038.000000 (2020 Jul  8  0:00)
1969-046E = NORAD 03955 = Vela 5b
1 03955U 69046E   20190.49919926  .00000000  00000-0  00000-0 0 13465
2 03955 044.1945 223.0206 5077354 071.5979 247.3286 00.21377067    00

# Worst residual: 22.29 km
# MJD 59039.000000 (2020 Jul  9  0:00)
1969-046E = NORAD 03955 = Vela 5b
1 03955U 69046E   20191.49919926  .00000000  00000-0  00000-0 0 13466
2 03955 044.1964 222.9640 5070332 071.6839 324.1948 00.21424365    09

# Worst residual: 14.66 km
# MJD 59040.000000 (2020 Jul 10  0:00)
1969-046E = NORAD 03955 = Vela 5b
1 03955U 69046E   20192.49919926  .00000000  00000-0  00000-0 0 13467
2 03955 044.1995 222.9669 5073006 071.4800 041.4000 00.21402367    07

# Worst residual: 3.98 km
# MJD 59041.000000 (2020 Jul 11  0:00)
1969-046E = NORAD 03955 = Vela 5b
1 03955U 69046E   20193.49919926  .00000000  00000-0  00000-0 0 13468
2 03955 044.1836 222.9280 5075029 071.5092 118.3744 00.21374823    05

# Worst residual: 5.59 km
# MJD 59042.000000 (2020 Jul 12  0:00)
1969-046E = NORAD 03955 = Vela 5b
1 03955U 69046E   20194.49919926  .00000000  00000-0  00000-0 0 13469
2 03955 044.1748 222.8890 5068316 071.4470 195.5183 00.21363480    04

# Worst residual: 1.09 km
# MJD 59043.000000 (2020 Jul 13  0:00)
1969-046E = NORAD 03955 = Vela 5b
1 03955U 69046E   20195.49919926  .00000000  00000-0  00000-0 0 13460
2 03955 044.1669 222.8579 5066352 071.3629 272.5924 00.21351544    00

# Worst residual: 18.33 km
# MJD 59044.000000 (2020 Jul 14  0:00)
1969-046E = NORAD 03955 = Vela 5b
1 03955U 69046E   20196.49919926  .00000000  00000-0  00000-0 0 13461
2 03955 044.1724 222.8158 5060216 071.4133 349.4851 00.21404499    00
